{"type": "FeatureCollection", "features": [{"type": "Feature", "geometry": {"type": "Polygon", "coordinates": [[[-45.7961, -23.683], [-45.7417, -23.6682], [-45.7196, -23.6489], [-45.7025, -23.6369], [-45.7396, -23.5833], [-45.7465, -23.5389], [-45.7888, -23.4929], [-45.8136, -23.4993], [-45.8406, -23.4723], [-45.9041, -23.5053], [-45.9619, -23.4971], [-45.9519, -23.4514], [-45.9874, -23.4198], [-46.0025, -23.3853], [-46.0295, -23.3918], [-46.1015, -23.3086], [-46.1349, -23.2879], [-46.1457, -23.2568], [-46.1621, -23.2346], [-46.2274, -23.1898], [-46.2622, -23.1864], [-46.31, -23.205], [-46.3113, -23.2271], [-46.3642, -23.2741], [-46.4185, -23.3163], [-46.4484, -23.2701], [-46.4698, -23.2828], [-46.5154, -23.2375], [-46.5454, -23.2414], [-46.6151, -23.2273], [-46.6371, -23.2581], [-46.6384, -23.2577], [-46.7041, -23.2521], [-46.7438, -23.2503], [-46.7837, -23.2654], [-46.8026, -23.2571], [-46.8381, -23.2878], [-46.8675, -23.2779], [-46.9019, -23.3076], [-46.9379, -23.3219], [-46.9591, -23.3268], [-47.0429, -23.3523], [-47.0306, -23.3717], [-47.0375, -23.4356], [-46.995, -23.507], [-46.9916, -23.5294], [-47.0281, -23.5813], [-47.059, -23.6283], [-47.0815, -23.6532], [-47.0761, -23.6807], [-47.0193, -23.7885], [-46.9889, -23.8008], [-47.0174, -23.8176], [-47.0288, -23.8462], [-47.0836, -23.8447], [-47.1291, -23.8606], [-47.1424, -23.9113], [-47.1843, -23.9299], [-47.2055, -23.9608], [-47.2, -24.0006], [-47.1271, -24.0087], [-47.1628, -24.0237], [-47.1605, -24.0526], [-47.2273, -24.0822], [-47.2674, -24.115], [-47.2883, -24.1621], [-47.2728, -24.1827], [-47.2955, -24.2223], [-47.2869, -24.2778], [-47.3324, -24.2881], [-47.3195, -24.3395], [-47.3003, -24.3599], [-47.2474, -24.3618], [-47.2344, -24.3765], [-47.1878, -24.3662], [-47.1208, -24.3648], [-47.1177, -24.4176], [-47.0779, -24.4482], [-47.0036, -24.409], [-47.0182, -24.3788], [-46.9939, -24.3254], [-46.8976, -24.2529], [-46.8446, -24.2184], [-46.7094, -24.1441], [-46.6044, -24.0897], [-46.493, -24.0385], [-46.4156, -24.0157], [-46.3919, -23.9986], [-46.3551, -23.9711], [-46.3063, -23.9931], [-46.3201, -24.0243], [-46.2397, -23.9908], [-46.1978, -23.9948], [-46.1656, -23.9442], [-46.1332, -23.8565], [-46.0887, -23.8221], [-46.0388, -23.8155], [-45.9726, -23.7854], [-45.8983, -23.7654], [-45.8424, -23.7582], [-45.7948, -23.7156], [-45.7961, -23.683]]]}, "properties": {"codarea": "3501"}}]}