{"type": "FeatureCollection", "features": [{"type": "Feature", "geometry": {"type": "Polygon", "coordinates": [[[-49.3696, -22.8834], [-49.3967, -22.8823], [-49.4586, -22.9133], [-49.4573, -22.975], [-49.4121, -23.0515], [-49.3876, -23.0537], [-49.3297, -23.1131], [-49.2454, -23.1448], [-49.2431, -23.2073], [-49.2108, -23.2455], [-49.1995, -23.2914], [-49.2173, -23.2985], [-49.2131, -23.4175], [-49.2583, -23.408], [-49.2921, -23.4174], [-49.3173, -23.4006], [-49.3605, -23.4351], [-49.395, -23.3955], [-49.4484, -23.4213], [-49.4521, -23.4736], [-49.44, -23.4889], [-49.4764, -23.5409], [-49.5136, -23.5077], [-49.5667, -23.4942], [-49.5981, -23.4582], [-49.6214, -23.4933], [-49.6242, -23.5233], [-49.6002, -23.5356], [-49.6028, -23.584], [-49.621, -23.6111], [-49.6021, -23.6521], [-49.5747, -23.676], [-49.5492, -23.704], [-49.5673, -23.7368], [-49.5597, -23.7936], [-49.5727, -23.827], [-49.608, -23.8394], [-49.587, -23.8889], [-49.5358, -23.9282], [-49.5223, -23.9166], [-49.4923, -23.9934], [-49.4575, -24.0495], [-49.4298, -24.0687], [-49.4087, -24.1069], [-49.3366, -24.1376], [-49.3507, -24.2208], [-49.3054, -24.2514], [-49.2869, -24.3026], [-49.2542, -24.3179], [-49.2011, -24.3451], [-49.2535, -24.405], [-49.2524, -24.4339], [-49.2505, -24.4454], [-49.2453, -24.4651], [-49.2957, -24.5003], [-49.2799, -24.5359], [-49.316, -24.5555], [-49.3036, -24.5969], [-49.312, -24.6635], [-49.2781, -24.693], [-49.2079, -24.7009], [-49.1857, -24.6728], [-49.1579, -24.6719], [-49.1298, -24.6819], [-49.1116, -24.6884], [-49.0103, -24.6544], [-48.9622, -24.6742], [-48.9123, -24.674], [-48.8404, -24.665], [-48.8108, -24.675], [-48.7771, -24.6957], [-48.7038, -24.6804], [-48.675, -24.7018], [-48.6166, -24.6687], [-48.5722, -24.6906], [-48.5381, -24.7262], [-48.5019, -24.746], [-48.5183, -24.781], [-48.5558, -24.8062], [-48.5677, -24.8488], [-48.5497, -24.8675], [-48.5664, -24.9168], [-48.5674, -24.9723], [-48.5981, -25.0033], [-48.5796, -25.0531], [-48.5563, -25.0843], [-48.5302, -25.1008], [-48.4809, -25.037], [-48.474, -25.0126], [-48.4119, -24.9804], [-48.3799, -24.9959], [-48.3512, -25.0365], [-48.2846, -25.0392], [-48.2696, -24.9975], [-48.2397, -24.9914], [-48.2086, -25.0319], [-48.2161, -25.0767], [-48.1816, -25.1338], [-48.1585, -25.1499], [-48.1825, -25.205], [-48.113, -25.2509], [-48.0235, -25.2309], [-48.0968, -25.2972], [-48.0961, -25.3089], [-48.0469, -25.2585], [-47.9238, -25.1605], [-47.908, -25.1181], [-47.9095, -25.0529], [-47.8429, -24.9766], [-47.7315, -24.8806], [-47.623, -24.7991], [-47.561, -24.7579], [-47.4248, -24.6851], [-47.4153, -24.6756], [-47.245, -24.574], [-47.1447, -24.4923], [-47.0779, -24.4482], [-47.1177, -24.4176], [-47.1208, -24.3648], [-47.1878, -24.3662], [-47.2344, -24.3765], [-47.2474, -24.3618], [-47.3003, -24.3599], [-47.3195, -24.3395], [-47.3324, -24.2881], [-47.2869, -24.2778], [-47.2955, -24.2223], [-47.2728, -24.1827], [-47.2883, -24.1621], [-47.2674, -24.115], [-47.2273, -24.0822], [-47.1605, -24.0526], [-47.1628, -24.0237], [-47.1271, -24.0087], [-47.2, -24.0006], [-47.2055, -23.9608], [-47.1843, -23.9299], [-47.1424, -23.9113], [-47.1291, -23.8606], [-47.0836, -23.8447], [-47.0288, -23.8462], [-47.0174, -23.8176], [-46.9889, -23.8008], [-47.0193, -23.7885], [-47.0761, -23.6807], [-47.0815, -23.6532], [-47.059, -23.6283], [-47.0281, -23.5813], [-46.9916, -23.5294], [-46.995, -23.507], [-47.0375, -23.4356], [-47.0306, -23.3717], [-47.0429, -23.3523], [-47.1335, -23.3806], [-47.143, -23.3483], [-47.1737, -23.3264], [-47.1688, -23.2938], [-47.1914, -23.2701], [-47.146, -23.2556], [-47.116, -23.2251], [-47.1293, -23.204], [-47.1959, -23.187], [-47.2455, -23.1827], [-47.3007, -23.1128], [-47.3896, -23.1547], [-47.4185, -23.1687], [-47.4119, -23.1195], [-47.4282, -23.1011], [-47.4888, -23.1075], [-47.5086, -23.0916], [-47.6087, -23.0993], [-47.6291, -23.0437], [-47.66, -23.0312], [-47.6603, -22.9973], [-47.7012, -22.9187], [-47.7115, -22.9121], [-47.7459, -22.9328], [-47.7633, -22.904], [-47.8069, -22.8769], [-47.8089, -22.8777], [-47.8267, -22.9422], [-47.8058, -22.9826], [-47.7725, -22.9755], [-47.7572, -22.9978], [-47.7919, -23.049], [-47.8213, -23.0724], [-47.8094, -23.0981], [-47.8189, -23.1325], [-47.8171, -23.1526], [-47.8391, -23.174], [-47.91, -23.1609], [-47.9151, -23.055], [-47.9369, -23.0146], [-47.9676, -23.0302], [-48.0061, -23.0697], [-48.0338, -23.0689], [-48.057, -23.1038], [-48.0917, -23.0865], [-48.1595, -23.0867], [-48.1921, -23.1241], [-48.1901, -23.1752], [-48.2249, -23.1962], [-48.2608, -23.2299], [-48.2414, -23.2802], [-48.3004, -23.2579], [-48.3364, -23.268], [-48.3601, -23.303], [-48.4915, -23.2611], [-48.5541, -23.2794], [-48.5927, -23.3154], [-48.6475, -23.3291], [-48.7042, -23.3416], [-48.774, -23.3024], [-48.7724, -23.2658], [-48.7456, -23.2514], [-48.7339, -23.1478], [-48.7509, -23.1141], [-48.7413, -23.0899], [-48.7775, -23.0465], [-48.7614, -22.993], [-48.7776, -22.9655], [-48.8522, -22.9317], [-48.8289, -22.8922], [-48.7994, -22.8734], [-48.8026, -22.8453], [-48.8797, -22.852], [-48.9483, -22.8255], [-48.9834, -22.8405], [-49.0309, -22.8338], [-49.0305, -22.7632], [-49.0949, -22.6979], [-49.0953, -22.6669], [-49.1515, -22.6843], [-49.183, -22.7242], [-49.2275, -22.7601], [-49.2489, -22.7494], [-49.2803, -22.7723], [-49.325, -22.7643], [-49.3759, -22.7775], [-49.3696, -22.8834]]]}, "properties": {"codarea": "3502"}}]}