{"type": "FeatureCollection", "features": [{"type": "Feature", "geometry": {"type": "Polygon", "coordinates": [[[-49.0953, -22.6669], [-49.0949, -22.6979], [-49.0305, -22.7632], [-49.0309, -22.8338], [-48.9834, -22.8405], [-48.9483, -22.8255], [-48.8797, -22.852], [-48.8026, -22.8453], [-48.7994, -22.8734], [-48.8289, -22.8922], [-48.8522, -22.9317], [-48.7776, -22.9655], [-48.7614, -22.993], [-48.7775, -23.0465], [-48.7413, -23.0899], [-48.7509, -23.1141], [-48.7339, -23.1478], [-48.7456, -23.2514], [-48.7724, -23.2658], [-48.774, -23.3024], [-48.7042, -23.3416], [-48.6475, -23.3291], [-48.5927, -23.3154], [-48.5541, -23.2794], [-48.4915, -23.2611], [-48.3601, -23.303], [-48.3364, -23.268], [-48.3004, -23.2579], [-48.2414, -23.2802], [-48.2608, -23.2299], [-48.2249, -23.1962], [-48.1901, -23.1752], [-48.1921, -23.1241], [-48.1595, -23.0867], [-48.0917, -23.0865], [-48.057, -23.1038], [-48.0338, -23.0689], [-48.0061, -23.0697], [-47.9676, -23.0302], [-47.9369, -23.0146], [-47.9338, -22.9451], [-47.9515, -22.9245], [-47.9308, -22.8833], [-47.9878, -22.8879], [-48.0144, -22.8523], [-48.0475, -22.8319], [-48.032, -22.8257], [-48.0315, -22.7192], [-48.0717, -22.7363], [-48.0986, -22.6884], [-48.0885, -22.6519], [-48.0964, -22.6234], [-48.1563, -22.6378], [-48.2138, -22.6152], [-48.2464, -22.619], [-48.2615, -22.6054], [-48.2477, -22.5785], [-48.2601, -22.5404], [-48.2349, -22.5204], [-48.1987, -22.5086], [-48.1728, -22.4761], [-48.1039, -22.5089], [-48.0595, -22.5134], [-48.0408, -22.5059], [-47.9158, -22.4247], [-47.954, -22.3981], [-47.9494, -22.3207], [-47.9268, -22.3054], [-47.9055, -22.2307], [-47.882, -22.2007], [-47.8999, -22.1576], [-47.9479, -22.1111], [-47.9931, -22.116], [-48.0449, -22.0732], [-48.0437, -22.1289], [-48.1076, -22.1802], [-48.1347, -22.1832], [-48.198, -22.148], [-48.256, -22.1546], [-48.2564, -22.1774], [-48.3143, -22.1987], [-48.3423, -22.181], [-48.3879, -22.1591], [-48.3962, -22.1218], [-48.4449, -22.0632], [-48.5033, -22.0194], [-48.5443, -22.0345], [-48.5644, -22.0048], [-48.6069, -21.9877], [-48.6424, -21.9701], [-48.6794, -21.9288], [-48.6789, -21.9278], [-48.7267, -21.891], [-48.8326, -21.8949], [-48.8776, -21.921], [-48.8922, -21.9067], [-48.9061, -21.8682], [-48.9648, -21.8498], [-48.9898, -21.8274], [-48.9636, -21.7887], [-48.9731, -21.7586], [-49.0401, -21.7739], [-49.084, -21.7556], [-49.1045, -21.751], [-49.1381, -21.7084], [-49.1642, -21.6474], [-49.2133, -21.6711], [-49.2386, -21.6708], [-49.2733, -21.659], [-49.3115, -21.6172], [-49.3285, -21.559], [-49.379, -21.5348], [-49.4117, -21.5444], [-49.4455, -21.5241], [-49.4845, -21.5035], [-49.5471, -21.4227], [-49.5834, -21.3795], [-49.6284, -21.3544], [-49.697, -21.3627], [-49.7278, -21.3449], [-49.7461, -21.2968], [-49.7687, -21.3063], [-49.8316, -21.275], [-49.8181, -21.3031], [-49.8432, -21.3553], [-49.8686, -21.3926], [-49.8611, -21.4305], [-49.8722, -21.4689], [-49.9086, -21.5045], [-49.9158, -21.5575], [-49.9939, -21.5909], [-50.0609, -21.5839], [-50.0999, -21.6206], [-50.1077, -21.6839], [-50.0728, -21.6842], [-50.024, -21.7006], [-49.9435, -21.6979], [-49.9132, -21.7064], [-49.8691, -21.7405], [-49.8389, -21.7605], [-49.7721, -21.8044], [-49.8094, -21.8903], [-49.7718, -21.927], [-49.7342, -21.9406], [-49.7553, -22.0089], [-49.7407, -22.0262], [-49.6955, -22.0445], [-49.6336, -22.076], [-49.5694, -22.1394], [-49.5564, -22.1298], [-49.5276, -22.1519], [-49.53, -22.1816], [-49.5122, -22.1887], [-49.4889, -22.2348], [-49.459, -22.2411], [-49.4228, -22.2942], [-49.4592, -22.3375], [-49.5128, -22.3957], [-49.5564, -22.392], [-49.6039, -22.4431], [-49.6285, -22.4692], [-49.6507, -22.44], [-49.6837, -22.4661], [-49.7038, -22.4393], [-49.772, -22.5006], [-49.748, -22.5401], [-49.7365, -22.5884], [-49.7071, -22.6187], [-49.6879, -22.6011], [-49.6312, -22.624], [-49.5989, -22.6649], [-49.5851, -22.6056], [-49.5662, -22.575], [-49.503, -22.5138], [-49.4897, -22.5419], [-49.4519, -22.5764], [-49.4536, -22.584], [-49.4189, -22.6212], [-49.351, -22.6426], [-49.3397, -22.6659], [-49.3798, -22.7339], [-49.3759, -22.7775], [-49.325, -22.7643], [-49.2803, -22.7723], [-49.2489, -22.7494], [-49.2275, -22.7601], [-49.183, -22.7242], [-49.1515, -22.6843], [-49.0953, -22.6669]]]}, "properties": {"codarea": "3503"}}]}