{"type": "FeatureCollection", "features": [{"type": "Feature", "geometry": {"type": "Polygon", "coordinates": [[[-49.7407, -22.0262], [-49.7553, -22.0089], [-49.7342, -21.9406], [-49.7718, -21.927], [-49.8094, -21.8903], [-49.7721, -21.8044], [-49.8389, -21.7605], [-49.8691, -21.7405], [-49.9132, -21.7064], [-49.9435, -21.6979], [-50.024, -21.7006], [-50.0728, -21.6842], [-50.1077, -21.6839], [-50.1592, -21.6824], [-50.2459, -21.6967], [-50.2733, -21.7093], [-50.3085, -21.7145], [-50.3606, -21.7242], [-50.3997, -21.7166], [-50.4541, -21.6882], [-50.496, -21.7153], [-50.5171, -21.7099], [-50.5706, -21.6919], [-50.6096, -21.6569], [-50.6152, -21.6589], [-50.6474, -21.6499], [-50.6696, -21.6058], [-50.7343, -21.572], [-50.7798, -21.5678], [-50.7773, -21.588], [-50.8269, -21.689], [-50.8571, -21.7776], [-50.8237, -21.8008], [-50.8391, -21.8293], [-50.8672, -21.8366], [-50.9043, -21.87], [-50.9659, -21.9258], [-50.9379, -21.951], [-50.8647, -21.969], [-50.7804, -22.0025], [-50.7102, -22.0152], [-50.7051, -22.0216], [-50.6552, -22.0353], [-50.547, -22.0873], [-50.5211, -22.111], [-50.4852, -22.1522], [-50.5239, -22.2204], [-50.5516, -22.2333], [-50.5585, -22.2953], [-50.6214, -22.2942], [-50.6456, -22.3123], [-50.6806, -22.2945], [-50.6963, -22.3708], [-50.695, -22.3999], [-50.7526, -22.4325], [-50.7835, -22.4352], [-50.8296, -22.4283], [-50.8437, -22.4469], [-50.8313, -22.4841], [-50.8574, -22.5299], [-50.842, -22.5504], [-50.8461, -22.618], [-50.8276, -22.6453], [-50.8878, -22.6561], [-50.9059, -22.6378], [-50.945, -22.675], [-50.934, -22.7263], [-50.9787, -22.7826], [-50.9277, -22.7977], [-50.8953, -22.7943], [-50.8424, -22.8314], [-50.8236, -22.8661], [-50.7931, -22.9051], [-50.7959, -22.9512], [-50.7098, -22.9534], [-50.6821, -22.9062], [-50.6373, -22.9069], [-50.6038, -22.9232], [-50.5772, -22.904], [-50.53, -22.9191], [-50.5268, -22.9348], [-50.4257, -22.9442], [-50.4164, -22.9128], [-50.3592, -22.9161], [-50.3402, -22.9481], [-50.2756, -22.9316], [-50.2432, -22.951], [-50.2039, -22.9528], [-50.1331, -22.9399], [-50.0528, -22.9055], [-50.0146, -22.9113], [-49.9862, -22.8975], [-49.9614, -22.9309], [-49.9742, -22.9545], [-49.9725, -22.9585], [-49.9545, -22.9784], [-49.9017, -22.9993], [-49.9116, -23.0511], [-49.8674, -23.0717], [-49.8337, -23.0659], [-49.8194, -23.077], [-49.8095, -23.0892], [-49.7892, -23.1033], [-49.7256, -23.1094], [-49.7165, -23.1484], [-49.6777, -23.1749], [-49.6538, -23.212], [-49.6271, -23.2818], [-49.6217, -23.3319], [-49.6379, -23.3495], [-49.5954, -23.3671], [-49.6025, -23.4085], [-49.5818, -23.429], [-49.5981, -23.4582], [-49.5667, -23.4942], [-49.5136, -23.5077], [-49.4764, -23.5409], [-49.44, -23.4889], [-49.4521, -23.4736], [-49.4484, -23.4213], [-49.395, -23.3955], [-49.3605, -23.4351], [-49.3173, -23.4006], [-49.2921, -23.4174], [-49.2583, -23.408], [-49.2131, -23.4175], [-49.2173, -23.2985], [-49.1995, -23.2914], [-49.2108, -23.2455], [-49.2431, -23.2073], [-49.2454, -23.1448], [-49.3297, -23.1131], [-49.3876, -23.0537], [-49.4121, -23.0515], [-49.4573, -22.975], [-49.4586, -22.9133], [-49.3967, -22.8823], [-49.3696, -22.8834], [-49.3759, -22.7775], [-49.3798, -22.7339], [-49.3397, -22.6659], [-49.351, -22.6426], [-49.4189, -22.6212], [-49.4536, -22.584], [-49.4519, -22.5764], [-49.4897, -22.5419], [-49.503, -22.5138], [-49.5662, -22.575], [-49.5851, -22.6056], [-49.5989, -22.6649], [-49.6312, -22.624], [-49.6879, -22.6011], [-49.7071, -22.6187], [-49.7365, -22.5884], [-49.748, -22.5401], [-49.772, -22.5006], [-49.7038, -22.4393], [-49.6837, -22.4661], [-49.6507, -22.44], [-49.6285, -22.4692], [-49.6039, -22.4431], [-49.5564, -22.392], [-49.5128, -22.3957], [-49.4592, -22.3375], [-49.4228, -22.2942], [-49.459, -22.2411], [-49.4889, -22.2348], [-49.5122, -22.1887], [-49.53, -22.1816], [-49.5276, -22.1519], [-49.5564, -22.1298], [-49.5694, -22.1394], [-49.6336, -22.076], [-49.6955, -22.0445], [-49.7407, -22.0262]]]}, "properties": {"codarea": "3504"}}]}