{"type": "FeatureCollection", "features": [{"type": "Feature", "geometry": {"type": "Polygon", "coordinates": [[[-51.0588, -21.3986], [-51.0999, -21.3699], [-51.145, -21.3744], [-51.1641, -21.384], [-51.2141, -21.3548], [-51.2254, -21.342], [-51.2378, -21.3268], [-51.2863, -21.3193], [-51.3288, -21.2925], [-51.3853, -21.2844], [-51.434, -21.2464], [-51.4855, -21.2325], [-51.5018, -21.2211], [-51.5234, -21.1996], [-51.5738, -21.1873], [-51.6137, -21.1417], [-51.6396, -21.1628], [-51.64, -21.1632], [-51.682, -21.1491], [-51.698, -21.0917], [-51.7725, -21.0511], [-51.7897, -21.1021], [-51.8236, -21.1268], [-51.8655, -21.1305], [-51.879, -21.1481], [-51.8797, -21.1979], [-51.8485, -21.2666], [-51.8611, -21.3367], [-51.8999, -21.3776], [-51.9287, -21.4558], [-51.9622, -21.4933], [-52.0004, -21.5166], [-52.0571, -21.5036], [-52.0778, -21.5152], [-52.1022, -21.5698], [-52.0689, -21.5981], [-52.0495, -21.6431], [-52.0558, -21.6772], [-52.1038, -21.7461], [-52.1613, -21.7708], [-52.1894, -21.8443], [-52.2484, -21.9023], [-52.275, -21.9149], [-52.319, -21.9721], [-52.3392, -22.0478], [-52.3919, -22.1147], [-52.4082, -22.1416], [-52.4562, -22.1853], [-52.4877, -22.2172], [-52.5869, -22.2568], [-52.6553, -22.3031], [-52.6951, -22.3146], [-52.7983, -22.3783], [-52.8548, -22.4391], [-52.9482, -22.4734], [-52.9986, -22.4932], [-53.0144, -22.5207], [-53.0738, -22.5489], [-53.1079, -22.5955], [-53.1052, -22.6219], [-53.0915, -22.6448], [-53.0385, -22.6184], [-53.0117, -22.5988], [-52.9724, -22.5705], [-52.9247, -22.5656], [-52.8584, -22.608], [-52.8154, -22.597], [-52.7829, -22.6021], [-52.7643, -22.6086], [-52.6971, -22.627], [-52.5893, -22.5661], [-52.5378, -22.616], [-52.4988, -22.6342], [-52.4457, -22.6083], [-52.4214, -22.6106], [-52.3805, -22.6265], [-52.3004, -22.6354], [-52.29, -22.6282], [-52.2504, -22.6154], [-52.2281, -22.6425], [-52.2226, -22.6755], [-52.1828, -22.6554], [-52.1567, -22.6447], [-52.1523, -22.5692], [-52.1356, -22.5269], [-52.1092, -22.5163], [-52.0329, -22.5392], [-52.0284, -22.5395], [-51.9405, -22.5673], [-51.9015, -22.6019], [-51.8902, -22.6132], [-51.8558, -22.6317], [-51.7716, -22.6141], [-51.733, -22.6286], [-51.7182, -22.669], [-51.6305, -22.6579], [-51.6279, -22.6582], [-51.5596, -22.6972], [-51.5172, -22.69], [-51.475, -22.6792], [-51.4464, -22.653], [-51.402, -22.6679], [-51.3736, -22.6581], [-51.3331, -22.6671], [-51.2982, -22.6735], [-51.2652, -22.6677], [-51.2137, -22.7237], [-51.176, -22.7388], [-51.1279, -22.76], [-51.0576, -22.7661], [-51.0044, -22.7937], [-50.9787, -22.7826], [-50.934, -22.7263], [-50.945, -22.675], [-50.9059, -22.6378], [-50.8878, -22.6561], [-50.8276, -22.6453], [-50.8461, -22.618], [-50.842, -22.5504], [-50.8574, -22.5299], [-50.8313, -22.4841], [-50.8437, -22.4469], [-50.8296, -22.4283], [-50.7835, -22.4352], [-50.7526, -22.4325], [-50.695, -22.3999], [-50.6963, -22.3708], [-50.6806, -22.2945], [-50.6456, -22.3123], [-50.6214, -22.2942], [-50.5585, -22.2953], [-50.5516, -22.2333], [-50.5239, -22.2204], [-50.4852, -22.1522], [-50.5211, -22.111], [-50.547, -22.0873], [-50.6552, -22.0353], [-50.7051, -22.0216], [-50.7102, -22.0152], [-50.7804, -22.0025], [-50.8647, -21.969], [-50.9379, -21.951], [-50.9659, -21.9258], [-50.9043, -21.87], [-50.8672, -21.8366], [-50.8391, -21.8293], [-50.8237, -21.8008], [-50.8571, -21.7776], [-50.8269, -21.689], [-50.7773, -21.588], [-50.7798, -21.5678], [-50.7735, -21.5446], [-50.8092, -21.5601], [-50.8159, -21.5399], [-50.8681, -21.5263], [-50.8736, -21.4892], [-50.8978, -21.4907], [-50.9241, -21.4419], [-50.9849, -21.4328], [-50.993, -21.4371], [-51.0588, -21.3986]]]}, "properties": {"codarea": "3505"}}]}