{"type": "FeatureCollection", "features": [{"type": "Feature", "geometry": {"type": "Polygon", "coordinates": [[[-50.0609, -21.5839], [-49.9939, -21.5909], [-49.9158, -21.5575], [-49.9086, -21.5045], [-49.8722, -21.4689], [-49.8611, -21.4305], [-49.8686, -21.3926], [-49.8432, -21.3553], [-49.8181, -21.3031], [-49.8316, -21.275], [-49.8565, -21.2603], [-49.9146, -21.2382], [-49.9916, -21.2267], [-49.9601, -21.1331], [-49.981, -21.0883], [-49.9848, -21.0458], [-50.055, -20.9973], [-50.0329, -20.9784], [-50.0224, -20.9436], [-50.0507, -20.9315], [-50.0312, -20.8903], [-50.0241, -20.824], [-50.0928, -20.811], [-50.1213, -20.8311], [-50.1141, -20.7635], [-50.1429, -20.78], [-50.1657, -20.7545], [-50.2505, -20.7367], [-50.2134, -20.7053], [-50.2119, -20.68], [-50.1708, -20.6157], [-50.1596, -20.5608], [-50.1383, -20.5211], [-50.1544, -20.5049], [-50.2029, -20.4814], [-50.2258, -20.4951], [-50.2852, -20.4698], [-50.2715, -20.5224], [-50.2859, -20.586], [-50.3152, -20.5714], [-50.3959, -20.5683], [-50.4509, -20.5202], [-50.4485, -20.4862], [-50.528, -20.5089], [-50.5541, -20.5283], [-50.6249, -20.5081], [-50.6555, -20.5169], [-50.6793, -20.5301], [-50.725, -20.5269], [-50.7687, -20.5447], [-50.8121, -20.5312], [-50.8731, -20.5424], [-50.9663, -20.5492], [-50.9781, -20.5651], [-50.9862, -20.5486], [-51.0329, -20.5589], [-51.068, -20.5546], [-51.1488, -20.5196], [-51.2032, -20.4891], [-51.2314, -20.4572], [-51.2038, -20.4398], [-51.1568, -20.4353], [-51.0386, -20.3709], [-51.0789, -20.3282], [-51.1094, -20.2801], [-51.1608, -20.3052], [-51.2957, -20.3285], [-51.3435, -20.3556], [-51.4188, -20.465], [-51.4492, -20.4828], [-51.5002, -20.5682], [-51.5676, -20.6183], [-51.5752, -20.6234], [-51.6033, -20.6617], [-51.6349, -20.7548], [-51.6224, -20.7769], [-51.633, -20.8216], [-51.6151, -20.8861], [-51.6236, -20.9444], [-51.6667, -20.9708], [-51.7137, -20.9715], [-51.7596, -21.0222], [-51.7725, -21.0511], [-51.698, -21.0917], [-51.682, -21.1491], [-51.64, -21.1632], [-51.6396, -21.1628], [-51.6137, -21.1417], [-51.5738, -21.1873], [-51.5234, -21.1996], [-51.5018, -21.2211], [-51.4855, -21.2325], [-51.434, -21.2464], [-51.3853, -21.2844], [-51.3288, -21.2925], [-51.2863, -21.3193], [-51.2378, -21.3268], [-51.2254, -21.342], [-51.2141, -21.3548], [-51.1641, -21.384], [-51.145, -21.3744], [-51.0999, -21.3699], [-51.0588, -21.3986], [-50.993, -21.4371], [-50.9849, -21.4328], [-50.9241, -21.4419], [-50.8978, -21.4907], [-50.8736, -21.4892], [-50.8681, -21.5263], [-50.8159, -21.5399], [-50.8092, -21.5601], [-50.7735, -21.5446], [-50.7798, -21.5678], [-50.7343, -21.572], [-50.6696, -21.6058], [-50.6474, -21.6499], [-50.6152, -21.6589], [-50.6096, -21.6569], [-50.5706, -21.6919], [-50.5171, -21.7099], [-50.496, -21.7153], [-50.4541, -21.6882], [-50.3997, -21.7166], [-50.3606, -21.7242], [-50.3085, -21.7145], [-50.2733, -21.7093], [-50.2459, -21.6967], [-50.1592, -21.6824], [-50.1077, -21.6839], [-50.0999, -21.6206], [-50.0609, -21.5839]]]}, "properties": {"codarea": "3506"}}]}