{"type": "FeatureCollection", "features": [{"type": "Feature", "geometry": {"type": "Polygon", "coordinates": [[[-49.6284, -21.3544], [-49.5834, -21.3795], [-49.5471, -21.4227], [-49.4845, -21.5035], [-49.4455, -21.5241], [-49.4117, -21.5444], [-49.379, -21.5348], [-49.3285, -21.559], [-49.3115, -21.6172], [-49.2733, -21.659], [-49.2386, -21.6708], [-49.2133, -21.6711], [-49.2412, -21.6242], [-49.1875, -21.5959], [-49.1559, -21.5559], [-49.1502, -21.5302], [-49.0822, -21.4645], [-49.0548, -21.4885], [-49.0194, -21.4823], [-48.9914, -21.4562], [-48.9792, -21.4161], [-48.9002, -21.3706], [-48.873, -21.3943], [-48.8484, -21.3913], [-48.7735, -21.4276], [-48.7543, -21.4207], [-48.7257, -21.42], [-48.6846, -21.383], [-48.6697, -21.3377], [-48.6193, -21.2869], [-48.6536, -21.2311], [-48.6955, -21.2209], [-48.707, -21.2068], [-48.6517, -21.211], [-48.6259, -21.1964], [-48.5848, -21.2131], [-48.5812, -21.1657], [-48.5977, -21.1431], [-48.5677, -21.0755], [-48.6155, -21.0408], [-48.6578, -21.0309], [-48.686, -21.0102], [-48.6938, -21.0069], [-48.7183, -20.9777], [-48.7856, -20.934], [-48.7956, -20.9356], [-48.8419, -20.9131], [-48.8833, -20.9127], [-48.9071, -20.8923], [-48.9491, -20.8693], [-48.9841, -20.8485], [-49.0223, -20.8512], [-49.079, -20.8118], [-49.0988, -20.783], [-49.1183, -20.7398], [-49.1292, -20.6757], [-49.1189, -20.6044], [-49.05, -20.6284], [-49.0148, -20.6498], [-48.9901, -20.5817], [-49.0147, -20.5698], [-49.0109, -20.512], [-49.089, -20.419], [-49.0755, -20.356], [-49.0903, -20.3382], [-49.0936, -20.2896], [-49.1207, -20.2705], [-49.1836, -20.3147], [-49.2253, -20.3053], [-49.2597, -20.2588], [-49.2652, -20.2297], [-49.2992, -20.1671], [-49.3059, -20.1169], [-49.3073, -20.0603], [-49.2973, -20.0175], [-49.2483, -19.9996], [-49.2501, -19.9693], [-49.2975, -19.9605], [-49.3565, -19.9867], [-49.4538, -19.9781], [-49.4928, -19.9504], [-49.514, -19.9143], [-49.5515, -19.9058], [-49.6132, -19.92], [-49.6344, -19.9319], [-49.7494, -19.9247], [-49.8353, -19.9333], [-49.8537, -19.9465], [-49.9062, -19.9372], [-49.9699, -19.92], [-50.0031, -19.9264], [-50.0441, -19.9164], [-50.1062, -19.8743], [-50.1718, -19.8755], [-50.2157, -19.8666], [-50.2452, -19.8768], [-50.3374, -19.8695], [-50.4171, -19.8011], [-50.4541, -19.7862], [-50.4693, -19.7799], [-50.562, -19.8136], [-50.5779, -19.8164], [-50.6142, -19.861], [-50.6581, -19.9071], [-50.6864, -19.9162], [-50.7836, -19.9372], [-50.8441, -19.9676], [-50.886, -19.9904], [-50.9081, -19.9943], [-50.9455, -20.0297], [-50.9691, -20.0364], [-51.0005, -20.0854], [-51.0012, -20.0963], [-51.0216, -20.1333], [-51.0692, -20.25], [-51.1094, -20.2801], [-51.0789, -20.3282], [-51.0386, -20.3709], [-51.1568, -20.4353], [-51.2038, -20.4398], [-51.2314, -20.4572], [-51.2032, -20.4891], [-51.1488, -20.5196], [-51.068, -20.5546], [-51.0329, -20.5589], [-50.9862, -20.5486], [-50.9781, -20.5651], [-50.9663, -20.5492], [-50.8731, -20.5424], [-50.8121, -20.5312], [-50.7687, -20.5447], [-50.725, -20.5269], [-50.6793, -20.5301], [-50.6555, -20.5169], [-50.6249, -20.5081], [-50.5541, -20.5283], [-50.528, -20.5089], [-50.4485, -20.4862], [-50.4509, -20.5202], [-50.3959, -20.5683], [-50.3152, -20.5714], [-50.2859, -20.586], [-50.2715, -20.5224], [-50.2852, -20.4698], [-50.2258, -20.4951], [-50.2029, -20.4814], [-50.1544, -20.5049], [-50.1383, -20.5211], [-50.1596, -20.5608], [-50.1708, -20.6157], [-50.2119, -20.68], [-50.2134, -20.7053], [-50.2505, -20.7367], [-50.1657, -20.7545], [-50.1429, -20.78], [-50.1141, -20.7635], [-50.1213, -20.8311], [-50.0928, -20.811], [-50.0241, -20.824], [-50.0312, -20.8903], [-50.0507, -20.9315], [-50.0224, -20.9436], [-50.0329, -20.9784], [-50.055, -20.9973], [-49.9848, -21.0458], [-49.981, -21.0883], [-49.9601, -21.1331], [-49.9916, -21.2267], [-49.9146, -21.2382], [-49.8565, -21.2603], [-49.8316, -21.275], [-49.7687, -21.3063], [-49.7461, -21.2968], [-49.7278, -21.3449], [-49.697, -21.3627], [-49.6284, -21.3544]]]}, "properties": {"codarea": "3507"}}]}