{"type": "FeatureCollection", "features": [{"type": "Feature", "geometry": {"type": "Polygon", "coordinates": [[[-47.2274, -20.8565], [-47.2269, -20.8555], [-47.2145, -20.8272], [-47.2249, -20.8009], [-47.1888, -20.7706], [-47.1862, -20.7314], [-47.1692, -20.7034], [-47.1267, -20.7093], [-47.101, -20.682], [-47.0975, -20.6439], [-47.1233, -20.6127], [-47.1428, -20.5656], [-47.1377, -20.5611], [-47.1442, -20.5408], [-47.1545, -20.5196], [-47.2235, -20.4911], [-47.291, -20.4505], [-47.2935, -20.4187], [-47.2855, -20.4057], [-47.2982, -20.3484], [-47.2767, -20.2916], [-47.2326, -20.2275], [-47.2311, -20.2192], [-47.2618, -20.1599], [-47.2964, -20.1459], [-47.3292, -20.1153], [-47.3716, -20.0859], [-47.4081, -20.0802], [-47.4403, -20.0488], [-47.4244, -20.0153], [-47.4633, -19.9658], [-47.4896, -19.9693], [-47.5492, -19.9938], [-47.5838, -19.9967], [-47.5947, -20.0259], [-47.6397, -20.0472], [-47.6761, -20.0019], [-47.7127, -19.9781], [-47.7626, -19.986], [-47.8509, -19.9898], [-47.8752, -20.0186], [-47.8615, -20.045], [-47.8698, -20.0762], [-47.8994, -20.1257], [-47.9315, -20.1104], [-47.946, -20.0605], [-47.9812, -20.0364], [-48.0011, -20.1013], [-48.0202, -20.124], [-48.0768, -20.1484], [-48.1055, -20.1464], [-48.1786, -20.0962], [-48.2034, -20.0455], [-48.2285, -20.0282], [-48.2534, -20.0779], [-48.2186, -20.1279], [-48.2651, -20.1438], [-48.3154, -20.1138], [-48.3749, -20.1231], [-48.4058, -20.1135], [-48.4516, -20.1259], [-48.4911, -20.1381], [-48.5374, -20.1336], [-48.5932, -20.1358], [-48.6469, -20.167], [-48.7296, -20.1503], [-48.7811, -20.1639], [-48.8221, -20.1615], [-48.8554, -20.1801], [-48.8534, -20.215], [-48.8871, -20.2753], [-48.8755, -20.3184], [-48.8784, -20.3561], [-48.8671, -20.3989], [-48.8865, -20.4369], [-48.9042, -20.4387], [-48.963, -20.4031], [-48.9658, -20.2793], [-48.972, -20.2078], [-48.986, -20.1708], [-49.0329, -20.1501], [-49.0659, -20.1535], [-49.1207, -20.2705], [-49.0936, -20.2896], [-49.0903, -20.3382], [-49.0755, -20.356], [-49.089, -20.419], [-49.0109, -20.512], [-49.0147, -20.5698], [-48.9901, -20.5817], [-49.0148, -20.6498], [-49.05, -20.6284], [-49.1189, -20.6044], [-49.1292, -20.6757], [-49.1183, -20.7398], [-49.0988, -20.783], [-49.079, -20.8118], [-49.0223, -20.8512], [-48.9841, -20.8485], [-48.9491, -20.8693], [-48.9071, -20.8923], [-48.8833, -20.9127], [-48.8419, -20.9131], [-48.7956, -20.9356], [-48.7856, -20.934], [-48.7183, -20.9777], [-48.6938, -21.0069], [-48.686, -21.0102], [-48.6578, -21.0309], [-48.6155, -21.0408], [-48.5677, -21.0755], [-48.5977, -21.1431], [-48.5812, -21.1657], [-48.5848, -21.2131], [-48.6259, -21.1964], [-48.6517, -21.211], [-48.707, -21.2068], [-48.6955, -21.2209], [-48.6536, -21.2311], [-48.6193, -21.2869], [-48.5773, -21.3397], [-48.5455, -21.3517], [-48.4848, -21.3344], [-48.451, -21.3466], [-48.4268, -21.3187], [-48.3517, -21.3212], [-48.3118, -21.3607], [-48.3358, -21.3852], [-48.4278, -21.4354], [-48.4639, -21.4898], [-48.3941, -21.4922], [-48.3693, -21.5045], [-48.324, -21.4844], [-48.2826, -21.4813], [-48.2347, -21.4738], [-48.1135, -21.4206], [-48.1089, -21.4293], [-48.0743, -21.4792], [-48.0312, -21.5149], [-48.0273, -21.5389], [-47.9642, -21.5983], [-47.9272, -21.576], [-47.8631, -21.6116], [-47.818, -21.6156], [-47.8112, -21.6477], [-47.8301, -21.6685], [-47.8119, -21.6991], [-47.7677, -21.6917], [-47.7368, -21.7119], [-47.7241, -21.7062], [-47.679, -21.6571], [-47.671, -21.6031], [-47.6426, -21.5922], [-47.5707, -21.5589], [-47.4497, -21.5775], [-47.4461, -21.5842], [-47.3992, -21.6137], [-47.3642, -21.5932], [-47.357, -21.5699], [-47.3055, -21.5508], [-47.2775, -21.5277], [-47.2787, -21.4684], [-47.2642, -21.4513], [-47.2413, -21.4433], [-47.2149, -21.427], [-47.1919, -21.348], [-47.1573, -21.3023], [-47.1296, -21.3285], [-47.0655, -21.2694], [-47.0442, -21.2674], [-47.0761, -21.2412], [-47.1185, -21.1859], [-47.1176, -21.1532], [-47.133, -21.1332], [-47.1148, -21.1047], [-47.1413, -21.0859], [-47.1479, -21.0355], [-47.1437, -20.9824], [-47.1813, -20.9538], [-47.24, -20.8853], [-47.2274, -20.8565]]]}, "properties": {"codarea": "3508"}}]}