{"type": "FeatureCollection", "features": [{"type": "Feature", "geometry": {"type": "Polygon", "coordinates": [[[-48.4449, -22.0632], [-48.3962, -22.1218], [-48.3879, -22.1591], [-48.3423, -22.181], [-48.3143, -22.1987], [-48.2564, -22.1774], [-48.256, -22.1546], [-48.198, -22.148], [-48.1347, -22.1832], [-48.1076, -22.1802], [-48.0437, -22.1289], [-48.0449, -22.0732], [-47.9931, -22.116], [-47.9479, -22.1111], [-47.8999, -22.1576], [-47.882, -22.2007], [-47.9055, -22.2307], [-47.9268, -22.3054], [-47.9494, -22.3207], [-47.954, -22.3981], [-47.9158, -22.4247], [-47.857, -22.4306], [-47.8126, -22.4568], [-47.7929, -22.4482], [-47.7767, -22.4441], [-47.7941, -22.4343], [-47.7879, -22.3945], [-47.7603, -22.3404], [-47.7307, -22.2987], [-47.7137, -22.3019], [-47.7232, -22.2727], [-47.7132, -22.2401], [-47.7603, -22.1634], [-47.7998, -22.1282], [-47.7895, -22.0976], [-47.7523, -22.0894], [-47.7264, -22.0415], [-47.6758, -22.0135], [-47.6581, -22.0518], [-47.6265, -22.0436], [-47.5784, -22.0889], [-47.4589, -22.0832], [-47.442, -22.0636], [-47.3997, -22.0849], [-47.3781, -22.0956], [-47.328, -22.0902], [-47.3009, -22.1029], [-47.2554, -22.0913], [-47.1975, -22.0987], [-47.2338, -22.0567], [-47.2017, -22.0342], [-47.2162, -21.976], [-47.2499, -21.9656], [-47.2822, -21.9208], [-47.2777, -21.8826], [-47.3104, -21.8727], [-47.3431, -21.8399], [-47.3469, -21.8065], [-47.2934, -21.7523], [-47.3383, -21.6812], [-47.3288, -21.6445], [-47.3724, -21.6498], [-47.3992, -21.6137], [-47.4461, -21.5842], [-47.4497, -21.5775], [-47.5707, -21.5589], [-47.6426, -21.5922], [-47.671, -21.6031], [-47.679, -21.6571], [-47.7241, -21.7062], [-47.7368, -21.7119], [-47.7677, -21.6917], [-47.8119, -21.6991], [-47.8301, -21.6685], [-47.8112, -21.6477], [-47.818, -21.6156], [-47.8631, -21.6116], [-47.9272, -21.576], [-47.9642, -21.5983], [-48.0273, -21.5389], [-48.0312, -21.5149], [-48.0743, -21.4792], [-48.1089, -21.4293], [-48.1135, -21.4206], [-48.2347, -21.4738], [-48.2826, -21.4813], [-48.324, -21.4844], [-48.3693, -21.5045], [-48.3941, -21.4922], [-48.4639, -21.4898], [-48.4278, -21.4354], [-48.3358, -21.3852], [-48.3118, -21.3607], [-48.3517, -21.3212], [-48.4268, -21.3187], [-48.451, -21.3466], [-48.4848, -21.3344], [-48.5455, -21.3517], [-48.5773, -21.3397], [-48.6193, -21.2869], [-48.6697, -21.3377], [-48.6846, -21.383], [-48.7257, -21.42], [-48.7543, -21.4207], [-48.7735, -21.4276], [-48.8484, -21.3913], [-48.873, -21.3943], [-48.9002, -21.3706], [-48.9792, -21.4161], [-48.9914, -21.4562], [-49.0194, -21.4823], [-49.0548, -21.4885], [-49.0822, -21.4645], [-49.1502, -21.5302], [-49.1559, -21.5559], [-49.1875, -21.5959], [-49.2412, -21.6242], [-49.2133, -21.6711], [-49.1642, -21.6474], [-49.1381, -21.7084], [-49.1045, -21.751], [-49.084, -21.7556], [-49.0401, -21.7739], [-48.9731, -21.7586], [-48.9636, -21.7887], [-48.9898, -21.8274], [-48.9648, -21.8498], [-48.9061, -21.8682], [-48.8922, -21.9067], [-48.8776, -21.921], [-48.8326, -21.8949], [-48.7267, -21.891], [-48.6789, -21.9278], [-48.6794, -21.9288], [-48.6424, -21.9701], [-48.6069, -21.9877], [-48.5644, -22.0048], [-48.5443, -22.0345], [-48.5033, -22.0194], [-48.4449, -22.0632]]]}, "properties": {"codarea": "3509"}}]}