{"type": "FeatureCollection", "features": [{"type": "Feature", "geometry": {"type": "Polygon", "coordinates": [[[-47.1975, -22.0987], [-47.2554, -22.0913], [-47.3009, -22.1029], [-47.328, -22.0902], [-47.3781, -22.0956], [-47.3997, -22.0849], [-47.442, -22.0636], [-47.4589, -22.0832], [-47.5784, -22.0889], [-47.6265, -22.0436], [-47.6581, -22.0518], [-47.6758, -22.0135], [-47.7264, -22.0415], [-47.7523, -22.0894], [-47.7895, -22.0976], [-47.7998, -22.1282], [-47.7603, -22.1634], [-47.7132, -22.2401], [-47.7232, -22.2727], [-47.7137, -22.3019], [-47.7307, -22.2987], [-47.7603, -22.3404], [-47.7879, -22.3945], [-47.7941, -22.4343], [-47.7767, -22.4441], [-47.7929, -22.4482], [-47.8126, -22.4568], [-47.857, -22.4306], [-47.9158, -22.4247], [-48.0408, -22.5059], [-48.0595, -22.5134], [-48.1039, -22.5089], [-48.1728, -22.4761], [-48.1987, -22.5086], [-48.2349, -22.5204], [-48.2601, -22.5404], [-48.2477, -22.5785], [-48.2615, -22.6054], [-48.2464, -22.619], [-48.2138, -22.6152], [-48.1563, -22.6378], [-48.0964, -22.6234], [-48.0885, -22.6519], [-48.0986, -22.6884], [-48.0717, -22.7363], [-48.0315, -22.7192], [-48.032, -22.8257], [-48.0475, -22.8319], [-48.0144, -22.8523], [-47.9878, -22.8879], [-47.9308, -22.8833], [-47.9515, -22.9245], [-47.9338, -22.9451], [-47.9369, -23.0146], [-47.9151, -23.055], [-47.91, -23.1609], [-47.8391, -23.174], [-47.8171, -23.1526], [-47.8189, -23.1325], [-47.8094, -23.0981], [-47.8213, -23.0724], [-47.7919, -23.049], [-47.7572, -22.9978], [-47.7725, -22.9755], [-47.8058, -22.9826], [-47.8267, -22.9422], [-47.8089, -22.8777], [-47.8069, -22.8769], [-47.7633, -22.904], [-47.7459, -22.9328], [-47.7115, -22.9121], [-47.7012, -22.9187], [-47.6603, -22.9973], [-47.66, -23.0312], [-47.6291, -23.0437], [-47.6087, -23.0993], [-47.5086, -23.0916], [-47.4888, -23.1075], [-47.4282, -23.1011], [-47.4119, -23.1195], [-47.4185, -23.1687], [-47.3896, -23.1547], [-47.3007, -23.1128], [-47.2455, -23.1827], [-47.1959, -23.187], [-47.1293, -23.204], [-47.116, -23.2251], [-47.146, -23.2556], [-47.1914, -23.2701], [-47.1688, -23.2938], [-47.1737, -23.3264], [-47.143, -23.3483], [-47.1335, -23.3806], [-47.0429, -23.3523], [-46.9591, -23.3268], [-46.9379, -23.3219], [-46.9019, -23.3076], [-46.8675, -23.2779], [-46.8381, -23.2878], [-46.8026, -23.2571], [-46.7837, -23.2654], [-46.7438, -23.2503], [-46.7041, -23.2521], [-46.6384, -23.2577], [-46.6371, -23.2581], [-46.6151, -23.2273], [-46.5454, -23.2414], [-46.5154, -23.2375], [-46.4698, -23.2828], [-46.4484, -23.2701], [-46.4185, -23.3163], [-46.3642, -23.2741], [-46.3113, -23.2271], [-46.31, -23.205], [-46.2622, -23.1864], [-46.2151, -23.1084], [-46.2052, -23.0849], [-46.1614, -23.0661], [-46.1178, -23.0055], [-46.0866, -22.985], [-46.0826, -22.9855], [-46.052, -22.9683], [-46.0412, -22.9138], [-46.0507, -22.897], [-46.0952, -22.8944], [-46.1391, -22.9228], [-46.1413, -22.8681], [-46.1922, -22.8652], [-46.2574, -22.8909], [-46.279, -22.8783], [-46.3449, -22.9052], [-46.3763, -22.8771], [-46.3745, -22.8202], [-46.3617, -22.7889], [-46.3326, -22.7661], [-46.3728, -22.7468], [-46.4527, -22.7276], [-46.4731, -22.705], [-46.4691, -22.6732], [-46.3931, -22.663], [-46.4243, -22.5994], [-46.4146, -22.5579], [-46.4565, -22.5217], [-46.5421, -22.4944], [-46.5499, -22.4695], [-46.5548, -22.4466], [-46.6163, -22.4386], [-46.6665, -22.4151], [-46.6609, -22.366], [-46.7233, -22.3066], [-46.7069, -22.2579], [-46.6803, -22.2165], [-46.6718, -22.1783], [-46.6456, -22.1806], [-46.613, -22.1503], [-46.6242, -22.1085], [-46.6468, -22.0919], [-46.7001, -22.0951], [-46.7195, -22.0833], [-46.6648, -22.0689], [-46.6854, -22.0374], [-46.6499, -22.0095], [-46.6179, -21.995], [-46.6428, -21.9766], [-46.6738, -21.9111], [-46.6475, -21.8805], [-46.666, -21.8484], [-46.6907, -21.8376], [-46.6307, -21.7686], [-46.6145, -21.6765], [-46.5646, -21.6787], [-46.5547, -21.6534], [-46.5118, -21.5654], [-46.523, -21.5299], [-46.5089, -21.4891], [-46.5191, -21.449], [-46.5765, -21.427], [-46.6161, -21.4303], [-46.6476, -21.3796], [-46.6755, -21.3751], [-46.739, -21.3926], [-46.7647, -21.3601], [-46.7815, -21.3707], [-46.8361, -21.3707], [-46.8421, -21.3891], [-46.8846, -21.4072], [-46.9329, -21.425], [-47.013, -21.4191], [-46.9967, -21.3573], [-47.0165, -21.3424], [-47.0442, -21.2674], [-47.0655, -21.2694], [-47.1296, -21.3285], [-47.1573, -21.3023], [-47.1919, -21.348], [-47.2149, -21.427], [-47.2413, -21.4433], [-47.2642, -21.4513], [-47.2787, -21.4684], [-47.2775, -21.5277], [-47.3055, -21.5508], [-47.357, -21.5699], [-47.3642, -21.5932], [-47.3992, -21.6137], [-47.3724, -21.6498], [-47.3288, -21.6445], [-47.3383, -21.6812], [-47.2934, -21.7523], [-47.3469, -21.8065], [-47.3431, -21.8399], [-47.3104, -21.8727], [-47.2777, -21.8826], [-47.2822, -21.9208], [-47.2499, -21.9656], [-47.2162, -21.976], [-47.2017, -22.0342], [-47.2338, -22.0567], [-47.1975, -22.0987]]]}, "properties": {"codarea": "3510"}}]}