{"type": "FeatureCollection", "features": [{"type": "Feature", "geometry": {"type": "MultiPolygon", "coordinates": [[[[-44.4662, -22.6157], [-44.5107, -22.6401], [-44.546, -22.607], [-44.6459, -22.6039], [-44.6444, -22.5556], [-44.6679, -22.5541], [-44.6882, -22.5215], [-44.7192, -22.4634], [-44.7553, -22.4153], [-44.8094, -22.4056], [-44.8439, -22.4278], [-44.8897, -22.4321], [-44.9396, -22.4526], [-44.9659, -22.4752], [-44.9907, -22.4665], [-45.0549, -22.4705], [-45.1028, -22.4899], [-45.1244, -22.4972], [-45.1668, -22.5307], [-45.1772, -22.5467], [-45.2545, -22.5816], [-45.2691, -22.6114], [-45.333, -22.6176], [-45.4, -22.6537], [-45.4204, -22.6212], [-45.4804, -22.5905], [-45.4888, -22.6288], [-45.5249, -22.6469], [-45.5804, -22.6529], [-45.5599, -22.6276], [-45.5765, -22.6017], [-45.6181, -22.6379], [-45.6662, -22.6512], [-45.6811, -22.6363], [-45.6599, -22.599], [-45.6787, -22.5733], [-45.7268, -22.587], [-45.73, -22.6187], [-45.698, -22.6498], [-45.7428, -22.6592], [-45.7879, -22.6934], [-45.8116, -22.6987], [-45.8051, -22.7373], [-45.7326, -22.722], [-45.7122, -22.7698], [-45.7709, -22.8059], [-45.768, -22.836], [-45.8481, -22.8378], [-45.871, -22.8715], [-45.909, -22.8296], [-45.9565, -22.8498], [-46.0085, -22.8895], [-46.0507, -22.897], [-46.0412, -22.9138], [-46.052, -22.9683], [-46.0826, -22.9855], [-46.0866, -22.985], [-46.1178, -23.0055], [-46.1614, -23.0661], [-46.2052, -23.0849], [-46.2151, -23.1084], [-46.2622, -23.1864], [-46.2274, -23.1898], [-46.1621, -23.2346], [-46.1457, -23.2568], [-46.1349, -23.2879], [-46.1015, -23.3086], [-46.0295, -23.3918], [-46.0025, -23.3853], [-45.9874, -23.4198], [-45.9519, -23.4514], [-45.9619, -23.4971], [-45.9041, -23.5053], [-45.8406, -23.4723], [-45.8136, -23.4993], [-45.7888, -23.4929], [-45.7465, -23.5389], [-45.7396, -23.5833], [-45.7025, -23.6369], [-45.7196, -23.6489], [-45.7417, -23.6682], [-45.7961, -23.683], [-45.7948, -23.7156], [-45.8424, -23.7582], [-45.7925, -23.7693], [-45.7633, -23.763], [-45.6641, -23.779], [-45.624, -23.7958], [-45.5551, -23.795], [-45.5024, -23.8412], [-45.4651, -23.8192], [-45.4309, -23.8325], [-45.3963, -23.8081], [-45.3969, -23.7806], [-45.427, -23.7084], [-45.4283, -23.6579], [-45.4066, -23.6239], [-45.3569, -23.6227], [-45.3114, -23.5757], [-45.2767, -23.5783], [-45.2442, -23.5937], [-45.2125, -23.5662], [-45.2194, -23.5289], [-45.1592, -23.5385], [-45.1739, -23.4963], [-45.0715, -23.4972], [-45.0539, -23.4167], [-45.015, -23.4187], [-44.9771, -23.4003], [-44.9416, -23.357], [-44.9057, -23.334], [-44.8369, -23.3696], [-44.8402, -23.3882], [-44.7506, -23.366], [-44.7242, -23.3676], [-44.7777, -23.3377], [-44.7874, -23.2991], [-44.8247, -23.2916], [-44.828, -23.2706], [-44.8893, -23.2266], [-44.8826, -23.2027], [-44.8747, -23.1847], [-44.8244, -23.1627], [-44.8106, -23.1148], [-44.8188, -23.0915], [-44.8022, -23.0488], [-44.7919, -22.9819], [-44.7648, -22.9833], [-44.7435, -22.947], [-44.6387, -22.9142], [-44.6295, -22.9049], [-44.6071, -22.8853], [-44.5552, -22.8881], [-44.4946, -22.8468], [-44.4669, -22.885], [-44.4231, -22.8505], [-44.3812, -22.8584], [-44.3181, -22.8451], [-44.2676, -22.829], [-44.2402, -22.7914], [-44.2576, -22.767], [-44.227, -22.7337], [-44.1739, -22.7021], [-44.1656, -22.6734], [-44.1843, -22.6373], [-44.2456, -22.6064], [-44.3421, -22.5893], [-44.3609, -22.6118], [-44.3824, -22.5735], [-44.4058, -22.5991], [-44.4662, -22.6157]]], [[[-45.2904, -23.8691], [-45.2423, -23.8108], [-45.2327, -23.785], [-45.2633, -23.7415], [-45.34, -23.7275], [-45.3657, -23.809], [-45.4604, -23.8902], [-45.4443, -23.9341], [-45.4079, -23.9385], [-45.303, -23.9089], [-45.269, -23.965], [-45.2334, -23.948], [-45.2376, -23.9091], [-45.2904, -23.8691]]]]}, "properties": {"codarea": "3511"}}]}